{
  "type": "FeatureCollection",
  "features": [
    {
      "type": "Feature",
      "properties": {
        "norad_id": 67138,
        "name": "KUIPER-00183",
        "group": "last-30-days",
        "lat": -39.84241236965485,
        "lon": -78.85175628867266,
        "alt_km": 467.36166329599564,
        "timestamp": "2025-12-26T05:31:11.221110+00:00",
        "meta_object_name": "KUIPER-00183",
        "meta_object_id": "2025-301F",
        "meta_epoch": "2025-12-25T22:00:01.999584",
        "meta_mean_motion": 15.34070602,
        "meta_eccentricity": 0.00112143,
        "meta_inclination": 51.8613,
        "meta_ra_of_asc_node": 61.6881,
        "meta_arg_of_pericenter": 147.4074,
        "meta_mean_anomaly": 155.6094,
        "meta_ephemeris_type": 0,
        "meta_classification_type": "U",
        "meta_norad_cat_id": 67138,
        "meta_element_set_no": 999,
        "meta_rev_at_epoch": 255,
        "meta_bstar": 0.00015822463,
        "meta_mean_motion_dot": 4.926e-05,
        "meta_mean_motion_ddot": 0,
        "tle_line1": "1 67138U 25301F   25359.91668981  .00004926  00000+0  15822-3 0  9999",
        "tle_line2": "2 67138  51.8613  61.6881 0011214 147.4074 155.6094 15.34070602  2557"
      },
      "geometry": {
        "type": "Point",
        "coordinates": [
          -78.85175628867266,
          -39.84241236965485
        ]
      }
    },
    {
      "type": "Feature",
      "properties": {
        "norad_id": 67139,
        "name": "KUIPER-00184",
        "group": "last-30-days",
        "lat": -48.03773505529501,
        "lon": -58.953388905991325,
        "alt_km": 469.30258272720494,
        "timestamp": "2025-12-26T05:31:11.221121+00:00",
        "meta_object_name": "KUIPER-00184",
        "meta_object_id": "2025-301G",
        "meta_epoch": "2025-12-25T22:00:01.999584",
        "meta_mean_motion": 15.34411365,
        "meta_eccentricity": 0.00090174,
        "meta_inclination": 51.8627,
        "meta_ra_of_asc_node": 61.6558,
        "meta_arg_of_pericenter": 139.8828,
        "meta_mean_anomaly": 179.2616,
        "meta_ephemeris_type": 0,
        "meta_classification_type": "U",
        "meta_norad_cat_id": 67139,
        "meta_element_set_no": 999,
        "meta_rev_at_epoch": 266,
        "meta_bstar": 0.00026928685,
        "meta_mean_motion_dot": 8.749e-05,
        "meta_mean_motion_ddot": 0,
        "tle_line1": "1 67139U 25301G   25359.91668981  .00008749  00000+0  26929-3 0  9997",
        "tle_line2": "2 67139  51.8627  61.6558 0009017 139.8828 179.2616 15.34411365  2663"
      },
      "geometry": {
        "type": "Point",
        "coordinates": [
          -58.953388905991325,
          -48.03773505529501
        ]
      }
    },
    {
      "type": "Feature",
      "properties": {
        "norad_id": 67140,
        "name": "KUIPER-00186",
        "group": "last-30-days",
        "lat": -51.83477420138366,
        "lon": -31.705283814039333,
        "alt_km": 469.4032197470924,
        "timestamp": "2025-12-26T05:31:11.221131+00:00",
        "meta_object_name": "KUIPER-00186",
        "meta_object_id": "2025-301H",
        "meta_epoch": "2025-12-25T22:00:01.999584",
        "meta_mean_motion": 15.35002429,
        "meta_eccentricity": 0.00076144,
        "meta_inclination": 51.8684,
        "meta_ra_of_asc_node": 61.6205,
        "meta_arg_of_pericenter": 130.0723,
        "meta_mean_anomaly": 206.3314,
        "meta_ephemeris_type": 0,
        "meta_classification_type": "U",
        "meta_norad_cat_id": 67140,
        "meta_element_set_no": 999,
        "meta_rev_at_epoch": 130,
        "meta_bstar": 0.00022778587,
        "meta_mean_motion_dot": 7.483e-05,
        "meta_mean_motion_ddot": 0,
        "tle_line1": "1 67140U 25301H   25359.91668981  .00007483  00000+0  22779-3 0  9992",
        "tle_line2": "2 67140  51.8684  61.6205 0007614 130.0723 206.3314 15.35002429  1300"
      },
      "geometry": {
        "type": "Point",
        "coordinates": [
          -31.705283814039333,
          -51.83477420138366
        ]
      }
    },
    {
      "type": "Feature",
      "properties": {
        "norad_id": 67141,
        "name": "KUIPER-00187",
        "group": "last-30-days",
        "lat": -44.212111349245234,
        "lon": 10.218576629368377,
        "alt_km": 465.92631295009414,
        "timestamp": "2025-12-26T05:31:11.221141+00:00",
        "meta_object_name": "KUIPER-00187",
        "meta_object_id": "2025-301J",
        "meta_epoch": "2025-12-25T22:00:01.999584",
        "meta_mean_motion": 15.35819131,
        "meta_eccentricity": 0.00044512,
        "meta_inclination": 51.8713,
        "meta_ra_of_asc_node": 61.5624,
        "meta_arg_of_pericenter": 115.9009,
        "meta_mean_anomaly": 248.3499,
        "meta_ephemeris_type": 0,
        "meta_classification_type": "U",
        "meta_norad_cat_id": 67141,
        "meta_element_set_no": 999,
        "meta_rev_at_epoch": 218,
        "meta_bstar": 0.00028608455,
        "meta_mean_motion_dot": 9.754e-05,
        "meta_mean_motion_ddot": 0,
        "tle_line1": "1 67141U 25301J   25359.91668981  .00009754  00000+0  28608-3 0  9993",
        "tle_line2": "2 67141  51.8713  61.5624 0004451 115.9009 248.3499 15.35819131  2186"
      },
      "geometry": {
        "type": "Point",
        "coordinates": [
          10.218576629368377,
          -44.212111349245234
        ]
      }
    },
    {
      "type": "Feature",
      "properties": {
        "norad_id": 67142,
        "name": "KUIPER-00188",
        "group": "last-30-days",
        "lat": -51.61669492443565,
        "lon": -37.28530083412574,
        "alt_km": 469.03070757511887,
        "timestamp": "2025-12-26T05:31:11.221151+00:00",
        "meta_object_name": "KUIPER-00188",
        "meta_object_id": "2025-301K",
        "meta_epoch": "2025-12-25T22:00:01.999584",
        "meta_mean_motion": 15.34911498,
        "meta_eccentricity": 0.00073791,
        "meta_inclination": 51.8695,
        "meta_ra_of_asc_node": 61.627,
        "meta_arg_of_pericenter": 134.7389,
        "meta_mean_anomaly": 198.2882,
        "meta_ephemeris_type": 0,
        "meta_classification_type": "U",
        "meta_norad_cat_id": 67142,
        "meta_element_set_no": 999,
        "meta_rev_at_epoch": 130,
        "meta_bstar": 0.00022031155,
        "meta_mean_motion_dot": 7.202e-05,
        "meta_mean_motion_ddot": 0,
        "tle_line1": "1 67142U 25301K   25359.91668981  .00007202  00000+0  22031-3 0  9994",
        "tle_line2": "2 67142  51.8695  61.6270 0007379 134.7389 198.2882 15.34911498  1306"
      },
      "geometry": {
        "type": "Point",
        "coordinates": [
          -37.28530083412574,
          -51.61669492443565
        ]
      }
    },
    {
      "type": "Feature",
      "properties": {
        "norad_id": 67143,
        "name": "KUIPER-00191",
        "group": "last-30-days",
        "lat": -51.69143366557232,
        "lon": -23.834725145681706,
        "alt_km": 468.68763146659785,
        "timestamp": "2025-12-26T05:31:11.221161+00:00",
        "meta_object_name": "KUIPER-00191",
        "meta_object_id": "2025-301L",
        "meta_epoch": "2025-12-25T22:00:01.999584",
        "meta_mean_motion": 15.35141234,
        "meta_eccentricity": 0.00066966,
        "meta_inclination": 51.8674,
        "meta_ra_of_asc_node": 61.6113,
        "meta_arg_of_pericenter": 131.7849,
        "meta_mean_anomaly": 209.358,
        "meta_ephemeris_type": 0,
        "meta_classification_type": "U",
        "meta_norad_cat_id": 67143,
        "meta_element_set_no": 999,
        "meta_rev_at_epoch": 241,
        "meta_bstar": 0.00023900058,
        "meta_mean_motion_dot": 7.906e-05,
        "meta_mean_motion_ddot": 0,
        "tle_line1": "1 67143U 25301L   25359.91668981  .00007906  00000+0  23900-3 0  9992",
        "tle_line2": "2 67143  51.8674  61.6113 0006696 131.7849 209.3580 15.35141234  2415"
      },
      "geometry": {
        "type": "Point",
        "coordinates": [
          -23.834725145681706,
          -51.69143366557232
        ]
      }
    },
    {
      "type": "Feature",
      "properties": {
        "norad_id": 67144,
        "name": "KUIPER-00196",
        "group": "last-30-days",
        "lat": -39.71755319122858,
        "lon": 19.303048498186808,
        "alt_km": 464.57357741918986,
        "timestamp": "2025-12-26T05:31:11.221173+00:00",
        "meta_object_name": "KUIPER-00196",
        "meta_object_id": "2025-301M",
        "meta_epoch": "2025-12-25T22:00:01.999584",
        "meta_mean_motion": 15.36019472,
        "meta_eccentricity": 0.00039275,
        "meta_inclination": 51.8733,
        "meta_ra_of_asc_node": 61.5432,
        "meta_arg_of_pericenter": 101.6176,
        "meta_mean_anomaly": 270.5544,
        "meta_ephemeris_type": 0,
        "meta_classification_type": "U",
        "meta_norad_cat_id": 67144,
        "meta_element_set_no": 999,
        "meta_rev_at_epoch": 212,
        "meta_bstar": 0.00029994043,
        "meta_mean_motion_dot": 0.00010313,
        "meta_mean_motion_ddot": 0,
        "tle_line1": "1 67144U 25301M   25359.91668981  .00010313  00000+0  29994-3 0  9998",
        "tle_line2": "2 67144  51.8733  61.5432 0003927 101.6176 270.5544 15.36019472  2125"
      },
      "geometry": {
        "type": "Point",
        "coordinates": [
          19.303048498186808,
          -39.71755319122858
        ]
      }
    }
  ]
}